date:2024-08-29T06:30:21+00:00
validtle:1
satid:57151
launchyear:2023
epoch:24241.207457
epochday:241
tleage:1
tleclassification:U
active:1
name:STARLINK-5776
meananomly:87.9049
meanmotion:15.0255
rightascension:0.0000
declination:0.0000
semimajoraxis:6937.1848709342
altitudeatperigee:558
altitudeatapogee:560
inclination:43.0044
eccentricity:0.0001356
argumentofperigree:272.1638
nickname:STARLINK-5776
idesg:23090BC 
cosparid:2023-090BC
altkm:558.79192284557
velkms:7.5838920330976
velkmh:27302
onumepoch:6655
onumnow:100010.48
otype:1
otypedesc:Low Earth Orbit (LEO)
status:1
timestamp:2024-08-28T04:58:44+00:00
nowjuliandate:2460551.7710808
nowepochdate:24242.2710763889
TLE:
STARLINK-5776
1 57151U 23090BC  24241.20745700 -.00001383  00000+0 -87288-4 0  9994
2 57151  43.0044  56.2161 0001356 272.1638  87.9049 15.02546959 66556